GLOBALSTAR M067 [+]     
1 32263U 07048A   23333.23138514 -.00000097  00000+0  18619-5 0  9992
2 32263  51.9732 251.9102 0000356 136.2623  29.4734 12.40634550739235
GLOBALSTAR M070 [+]     
1 32264U 07048B   23334.41469277 -.00000065  00000+0  21426-3 0  9990
2 32264  51.9768  48.9729 0000161 143.4881 297.8701 12.62282501743323
GLOBALSTAR M066 [+]     
1 32265U 07048C   23334.13962204 -.00000046  00000+0  32066-3 0  9999
2 32265  51.9681 271.8568 0001302  61.7764  40.6004 12.62277139745510
GLOBALSTAR M068 [-]     
1 32266U 07048D   23334.02529413 -.00000027  00000+0  42491-3 0  9991
2 32266  51.9878 224.9829 0001260  28.4918  75.5847 12.62772756746442
GLOBALSTAR M079 [+]     
1 37188U 10054A   23333.57504838 -.00000087  00000+0  91018-4 0  9999
2 37188  52.0048  61.5982 0000818 125.6308 338.5622 12.62270157605701
GLOBALSTAR M074 [+]     
1 37189U 10054B   23334.47840003 -.00000077  00000+0  14683-3 0  9998
2 37189  52.0029  58.2575 0000548 122.7151   9.1624 12.62272225605819
GLOBALSTAR M076 [+]     
1 37190U 10054C   23334.41414963 -.00000087  00000+0  94934-4 0  9995
2 37190  52.0043  58.5750 0000911 158.1218 280.1084 12.62263941605812
GLOBALSTAR M077 [+]     
1 37191U 10054D   23334.06981000 -.00000073  00000+0  17388-3 0  9990
2 37191  52.0099  16.3194 0000277 123.1652 248.9717 12.62267034606517
